DUPLEX                  
1 66906U 98067XS  26104.77576887  .00018714  00000+0  24545-3 0  9998
2 66906  51.6276 248.6275 0003842 291.6695  68.3888 15.58585559 20756
ISS OBJECT XT           
1 66907U 98067XT  26103.57707931  .00247531  00000+0  97677-3 0  9999
2 66907  51.6198 245.7992 0009779 304.7260  55.2822 15.85527994 20687
ISS OBJECT XU           
1 66908U 98067XU  26104.76653942  .00249758  00000+0  93495-3 0  9991
2 66908  51.6200 239.4823 0010122 309.2978  50.7128 15.86601834 20872
SILVERSAT               
1 66909U 98067XV  26104.63225978  .00604298  17171-3  11809-2 0  9995
2 66909  51.6142 237.7864 0013798 318.6019  41.3944 15.99420490 20880
ISS OBJECT XW           
1 66910U 98067XW  26104.61624315  .00171247  00000+0  77577-3 0  9990
2 66910  51.6189 240.7289 0009515 304.3505  55.6597 15.82842838 20846
ISS OBJECT XY           
1 66912U 98067XY  26104.66437716  .00080395  00000+0  60664-3 0  9996
2 66912  51.6239 244.1064 0006401 300.4632  59.5733 15.71741483 20793
KNACKSAT-2              
1 67683U 98067XZ  26104.43290565  .00023109  00000+0  34523-3 0  9991
2 67683  51.6301 253.8399 0011305 320.3591  39.6572 15.54855751 10346
CORAL                   
1 67684U 98067YA  26104.69486066  .00057787  00000+0  67685-3 0  9997
2 67684  51.6276 251.0865 0014947 313.5696  46.4056 15.60833285 10406
GXIBA-1                 
1 67685U 98067YB  26104.67301538  .00026244  00000+0  38013-3 0  9993
2 67685  51.6294 252.4431 0013303 318.1611  41.8362 15.55593389 10382
UITMSAT-2               
1 67686U 98067YC  26104.64566236  .00033338  00000+0  45748-3 0  9994
2 67686  51.6291 252.2608 0010241 296.5320  63.4621 15.56965162 10389
HMU-SAT2                
1 67687U 98067YD  26104.80950543  .00025926  00000+0  38051-3 0  9994
2 67687  51.6305 251.8581 0009670 299.1398  60.8625 15.55288543 10328
LEOPARD                 
1 67688U 98067YE  26104.78655733  .00030919  00000+0  43477-3 0  9991
2 67688  51.6290 251.7043 0009875 297.6151  62.3837 15.56349510 10326
CREW DRAGON 12          
1 67796U 26031A   26104.84437811  .00006957  00000+0  13466-3 0  9995
2 67796  51.6321 253.5853 0006504 313.2650  46.7795 15.48918397561961
PROGRESS-MS 33          
1 68319U 26058A   26104.84437811  .00006957  00000+0  13466-3 0  9996
2 68319  51.6321 253.5853 0006504 313.2650  46.7795 15.48918397  3470
CYGNUS NG-24            
1 68689U 26079A   26104.52178440  .00006465  00000+0  12575-3 0  9998
2 68689  51.6319 255.1813 0006494 311.8952  48.1482 15.48913360   390
