[{"OBJECT_NAME":"DUPLEX","OBJECT_ID":"1998-067XS","EPOCH":"2026-04-14T18:37:06.430368","MEAN_MOTION":15.58585559,"ECCENTRICITY":0.0003842,"INCLINATION":51.6276,"RA_OF_ASC_NODE":248.6275,"ARG_OF_PERICENTER":291.6695,"MEAN_ANOMALY":68.3888,"EPHEMERIS_TYPE":0,"CLASSIFICATION_TYPE":"U","NORAD_CAT_ID":66906,"ELEMENT_SET_NO":999,"REV_AT_EPOCH":2075,"BSTAR":0.00024545,"MEAN_MOTION_DOT":0.00018714,"MEAN_MOTION_DDOT":0},{"OBJECT_NAME":"ISS OBJECT XT","OBJECT_ID":"1998-067XT","EPOCH":"2026-04-13T13:50:59.652384","MEAN_MOTION":15.85527994,"ECCENTRICITY":0.0009779,"INCLINATION":51.6198,"RA_OF_ASC_NODE":245.7992,"ARG_OF_PERICENTER":304.726,"MEAN_ANOMALY":55.2822,"EPHEMERIS_TYPE":0,"CLASSIFICATION_TYPE":"U","NORAD_CAT_ID":66907,"ELEMENT_SET_NO":999,"REV_AT_EPOCH":2068,"BSTAR":0.00097677,"MEAN_MOTION_DOT":0.00247531,"MEAN_MOTION_DDOT":0},{"OBJECT_NAME":"ISS OBJECT XU","OBJECT_ID":"1998-067XU","EPOCH":"2026-04-14T18:23:49.005888","MEAN_MOTION":15.86601834,"ECCENTRICITY":0.0010122,"INCLINATION":51.62,"RA_OF_ASC_NODE":239.4823,"ARG_OF_PERICENTER":309.2978,"MEAN_ANOMALY":50.7128,"EPHEMERIS_TYPE":0,"CLASSIFICATION_TYPE":"U","NORAD_CAT_ID":66908,"ELEMENT_SET_NO":999,"REV_AT_EPOCH":2087,"BSTAR":0.00093495,"MEAN_MOTION_DOT":0.00249758,"MEAN_MOTION_DDOT":0},{"OBJECT_NAME":"SILVERSAT","OBJECT_ID":"1998-067XV","EPOCH":"2026-04-14T15:10:27.244992","MEAN_MOTION":15.9942049,"ECCENTRICITY":0.0013798,"INCLINATION":51.6142,"RA_OF_ASC_NODE":237.7864,"ARG_OF_PERICENTER":318.6019,"MEAN_ANOMALY":41.3944,"EPHEMERIS_TYPE":0,"CLASSIFICATION_TYPE":"U","NORAD_CAT_ID":66909,"ELEMENT_SET_NO":999,"REV_AT_EPOCH":2088,"BSTAR":0.0011809,"MEAN_MOTION_DOT":0.00604298,"MEAN_MOTION_DDOT":0.00017171},{"OBJECT_NAME":"ISS OBJECT XW","OBJECT_ID":"1998-067XW","EPOCH":"2026-04-14T14:47:23.408160","MEAN_MOTION":15.82842838,"ECCENTRICITY":0.0009515,"INCLINATION":51.6189,"RA_OF_ASC_NODE":240.7289,"ARG_OF_PERICENTER":304.3505,"MEAN_ANOMALY":55.6597,"EPHEMERIS_TYPE":0,"CLASSIFICATION_TYPE":"U","NORAD_CAT_ID":66910,"ELEMENT_SET_NO":999,"REV_AT_EPOCH":2084,"BSTAR":0.00077577,"MEAN_MOTION_DOT":0.00171247,"MEAN_MOTION_DDOT":0},{"OBJECT_NAME":"ISS OBJECT XY","OBJECT_ID":"1998-067XY","EPOCH":"2026-04-14T15:56:42.186624","MEAN_MOTION":15.71741483,"ECCENTRICITY":0.0006401,"INCLINATION":51.6239,"RA_OF_ASC_NODE":244.1064,"ARG_OF_PERICENTER":300.4632,"MEAN_ANOMALY":59.5733,"EPHEMERIS_TYPE":0,"CLASSIFICATION_TYPE":"U","NORAD_CAT_ID":66912,"ELEMENT_SET_NO":999,"REV_AT_EPOCH":2079,"BSTAR":0.00060664,"MEAN_MOTION_DOT":0.00080395,"MEAN_MOTION_DDOT":0},{"OBJECT_NAME":"KNACKSAT-2","OBJECT_ID":"1998-067XZ","EPOCH":"2026-04-14T10:23:23.048160","MEAN_MOTION":15.54855751,"ECCENTRICITY":0.00113057,"INCLINATION":51.6301,"RA_OF_ASC_NODE":253.8399,"ARG_OF_PERICENTER":320.3591,"MEAN_ANOMALY":39.6572,"EPHEMERIS_TYPE":0,"CLASSIFICATION_TYPE":"U","NORAD_CAT_ID":67683,"ELEMENT_SET_NO":999,"REV_AT_EPOCH":1034,"BSTAR":0.00034522923,"MEAN_MOTION_DOT":0.00023109,"MEAN_MOTION_DDOT":0},{"OBJECT_NAME":"CORAL","OBJECT_ID":"1998-067YA","EPOCH":"2026-04-14T16:40:35.961024","MEAN_MOTION":15.60833285,"ECCENTRICITY":0.0014947,"INCLINATION":51.6276,"RA_OF_ASC_NODE":251.0865,"ARG_OF_PERICENTER":313.5696,"MEAN_ANOMALY":46.4056,"EPHEMERIS_TYPE":0,"CLASSIFICATION_TYPE":"U","NORAD_CAT_ID":67684,"ELEMENT_SET_NO":999,"REV_AT_EPOCH":1040,"BSTAR":0.00067685,"MEAN_MOTION_DOT":0.00057787,"MEAN_MOTION_DDOT":0},{"OBJECT_NAME":"GXIBA-1","OBJECT_ID":"1998-067YB","EPOCH":"2026-04-14T16:09:08.528832","MEAN_MOTION":15.55593389,"ECCENTRICITY":0.0013303,"INCLINATION":51.6294,"RA_OF_ASC_NODE":252.4431,"ARG_OF_PERICENTER":318.1611,"MEAN_ANOMALY":41.8362,"EPHEMERIS_TYPE":0,"CLASSIFICATION_TYPE":"U","NORAD_CAT_ID":67685,"ELEMENT_SET_NO":999,"REV_AT_EPOCH":1038,"BSTAR":0.00038013,"MEAN_MOTION_DOT":0.00026244,"MEAN_MOTION_DDOT":0},{"OBJECT_NAME":"UITMSAT-2","OBJECT_ID":"1998-067YC","EPOCH":"2026-04-14T15:29:45.227904","MEAN_MOTION":15.56965162,"ECCENTRICITY":0.0010241,"INCLINATION":51.6291,"RA_OF_ASC_NODE":252.2608,"ARG_OF_PERICENTER":296.532,"MEAN_ANOMALY":63.4621,"EPHEMERIS_TYPE":0,"CLASSIFICATION_TYPE":"U","NORAD_CAT_ID":67686,"ELEMENT_SET_NO":999,"REV_AT_EPOCH":1038,"BSTAR":0.00045748,"MEAN_MOTION_DOT":0.00033338,"MEAN_MOTION_DDOT":0},{"OBJECT_NAME":"HMU-SAT2","OBJECT_ID":"1998-067YD","EPOCH":"2026-04-14T19:25:41.269152","MEAN_MOTION":15.55288543,"ECCENTRICITY":0.000967,"INCLINATION":51.6305,"RA_OF_ASC_NODE":251.8581,"ARG_OF_PERICENTER":299.1398,"MEAN_ANOMALY":60.8625,"EPHEMERIS_TYPE":0,"CLASSIFICATION_TYPE":"U","NORAD_CAT_ID":67687,"ELEMENT_SET_NO":999,"REV_AT_EPOCH":1032,"BSTAR":0.00038051,"MEAN_MOTION_DOT":0.00025926,"MEAN_MOTION_DDOT":0},{"OBJECT_NAME":"LEOPARD","OBJECT_ID":"1998-067YE","EPOCH":"2026-04-14T18:52:38.553312","MEAN_MOTION":15.5634951,"ECCENTRICITY":0.0009875,"INCLINATION":51.629,"RA_OF_ASC_NODE":251.7043,"ARG_OF_PERICENTER":297.6151,"MEAN_ANOMALY":62.3837,"EPHEMERIS_TYPE":0,"CLASSIFICATION_TYPE":"U","NORAD_CAT_ID":67688,"ELEMENT_SET_NO":999,"REV_AT_EPOCH":1032,"BSTAR":0.00043477,"MEAN_MOTION_DOT":0.00030919,"MEAN_MOTION_DDOT":0},{"OBJECT_NAME":"CREW DRAGON 12","OBJECT_ID":"2026-031A","EPOCH":"2026-04-14T20:15:54.268704","MEAN_MOTION":15.48918397,"ECCENTRICITY":0.0006504,"INCLINATION":51.6321,"RA_OF_ASC_NODE":253.5853,"ARG_OF_PERICENTER":313.265,"MEAN_ANOMALY":46.7795,"EPHEMERIS_TYPE":0,"CLASSIFICATION_TYPE":"U","NORAD_CAT_ID":67796,"ELEMENT_SET_NO":999,"REV_AT_EPOCH":56196,"BSTAR":0.00013466,"MEAN_MOTION_DOT":6.957e-5,"MEAN_MOTION_DDOT":0},{"OBJECT_NAME":"PROGRESS-MS 33","OBJECT_ID":"2026-058A","EPOCH":"2026-04-14T20:15:54.268704","MEAN_MOTION":15.48918397,"ECCENTRICITY":0.0006504,"INCLINATION":51.6321,"RA_OF_ASC_NODE":253.5853,"ARG_OF_PERICENTER":313.265,"MEAN_ANOMALY":46.7795,"EPHEMERIS_TYPE":0,"CLASSIFICATION_TYPE":"U","NORAD_CAT_ID":68319,"ELEMENT_SET_NO":999,"REV_AT_EPOCH":347,"BSTAR":0.00013466,"MEAN_MOTION_DOT":6.957e-5,"MEAN_MOTION_DDOT":0},{"OBJECT_NAME":"CYGNUS NG-24","OBJECT_ID":"2026-079A","EPOCH":"2026-04-14T12:31:22.172160","MEAN_MOTION":15.4891336,"ECCENTRICITY":0.00064948,"INCLINATION":51.6319,"RA_OF_ASC_NODE":255.1813,"ARG_OF_PERICENTER":311.8952,"MEAN_ANOMALY":48.1482,"EPHEMERIS_TYPE":0,"CLASSIFICATION_TYPE":"U","NORAD_CAT_ID":68689,"ELEMENT_SET_NO":999,"REV_AT_EPOCH":39,"BSTAR":0.00012575075,"MEAN_MOTION_DOT":6.465e-5,"MEAN_MOTION_DDOT":0}]
